NORAD_CAT_ID,OBJECT_NAME,OBJECT_TYPE,EPOCH,MEAN_MOTION,ECCENTRICITY,INCLINATION,RA_OF_ASC_NODE,ARG_OF_PERICENTER,MEAN_ANOMALY,BSTAR,MEAN_MOTION_DOT,MEAN_MOTION_DDOT,TLE_LINE0,TLE_LINE1,TLE_LINE2,SEMIMAJOR_AXIS,PERIOD,APOGEE,PERIGEE,DECAYED
50205.0,STARLINK-3260,PAYLOAD,2022-03-28 22:00:00,15.73226307,0.0004435,53.2145,225.0724,349.2973,272.4411,-0.00044193,-0.00062299,0.0,0 STARLINK-3260,1 50205U 21125BB  22087.91667824 -.00062299  00000-0 -44193-3 0  9999,2 50205  53.2145 225.0724 0004435 349.2973 272.4411 15.73226307 18689,6727.82,91.532,352.6690000000001,346.701,0.0
50205.0,STARLINK-3260,PAYLOAD,2022-03-29 14:00:01,15.73196802,0.0004368,53.2153,221.7729,345.8164,93.7254,-0.00059727,-0.00083661,0.0,0 STARLINK-3260,1 50205U 21125BB  22088.58334491 -.00083661  00000-0 -59727-3 0  9999,2 50205  53.2153 221.7729 0004368 345.8164  93.7254 15.73196802  3662,6727.904,91.533,352.708,346.831,0.0
50205.0,STARLINK-3260,PAYLOAD,2022-03-29 22:00:00,15.73130663,0.0004535,53.2151,220.1237,344.8147,183.6146,0.00041526,0.00057914,0.0,0 STARLINK-3260,1 50205U 21125BB  22088.91667824  .00057914  00000-0  41526-3 0  9993,2 50205  53.2151 220.1237 0004535 344.8147 183.6146 15.73130663  3665,6728.093000000003,91.537,353.009,346.907,0.0
50205.0,STARLINK-3260,PAYLOAD,2022-03-30 14:00:01,15.73257629,0.0004515,53.2153,216.8246,344.7529,1.5325,-0.00057873,-0.0008131999999999,0.0,0 STARLINK-3260,1 50205U 21125BB  22089.58335648 -.00081320  00000-0 -57873-3 0  9995,2 50205  53.2153 216.8246 0004515 344.7529   1.5325 15.73257629  3670,6727.731,91.53,352.6330000000001,346.55800000000005,0.0
50205.0,STARLINK-3260,PAYLOAD,2022-03-30 20:00:01,15.73186265,0.0004698,53.2153,215.5883,343.3769,339.5757,0.00051459,0.00072214,0.0,0 STARLINK-3260,1 50205U 21125BB  22089.83334491  .00072214  00000-0  51459-3 0  9992,2 50205  53.2153 215.5883 0004698 343.3769 339.5757 15.73186265 18986,6727.934,91.534,352.96,346.639,0.0
50205.0,STARLINK-3260,PAYLOAD,2022-03-30 22:00:00,15.73238511,0.0004654,53.2152,215.1753,343.0544,92.1184,-0.0002091,-0.00029935,0.0,0 STARLINK-3260,1 50205U 21125BB  22089.91667824 -.00029935  00000-0 -20910-3 0  9992,2 50205  53.2152 215.1753 0004654 343.0544  92.1184 15.73238511  3721,6727.785,91.531,352.781,346.519,0.0
50205.0,STARLINK-3260,PAYLOAD,2022-03-31 06:00:00,15.73187882,0.0004431999999999,53.2156,213.5237,339.8769999999999,184.2769,-2.2814e-05,-3.826e-05,0.0,0 STARLINK-3260,1 50205U 21125BB  22090.25001157 -.00003826  00000-0 -22814-4 0  9999,2 50205  53.2156 213.5237 0004432 339.8770 184.2769 15.73187882 19051,6727.93,91.534,352.777,346.81300000000016,0.0
50205.0,STARLINK-3260,PAYLOAD,2022-03-31 14:00:01,15.73182684,0.0004672,53.2159,211.8761,340.9443,272.1219,0.00035554,0.00049558,0.0,0 STARLINK-3260,1 50205U 21125BB  22090.58334491  .00049558  00000-0  35554-3 0  9999,2 50205  53.2159 211.8761 0004672 340.9443 272.1219 15.73182684  3700,6727.945,91.534,352.95300000000015,346.666,0.0
50205.0,STARLINK-3260,PAYLOAD,2022-03-31 22:00:00,15.7329815,0.0004796,53.2158,210.2264,339.7343,2.2786,-0.00032927,-0.00046809,0.0,0 STARLINK-3260,1 50205U 21125BB  22090.91667824 -.00046809  00000-0 -32927-3 0  9994,2 50205  53.2158 210.2264 0004796 339.7343   2.2786 15.73298150 19166,6727.615,91.527,352.707,346.254,0.0
50205.0,STARLINK-3260,PAYLOAD,2022-04-01 14:00:01,15.73274494,0.0004713,53.2158,206.9277,335.7357,184.264,-0.00059287,-0.00083338,0.0,0 STARLINK-3260,1 50205U 21125BB  22091.58334491 -.00083338  00000-0 -59287-3 0  9995,2 50205  53.2158 206.9277 0004713 335.7357 184.2640 15.73274494  3700,6727.683000000001,91.529,352.719,346.37699999999984,0.0
50205.0,STARLINK-3260,PAYLOAD,2022-04-01 22:00:00,15.73271584,0.0004788,53.2155,205.2777,331.2078,277.8089,-0.00092392,-0.00128825,0.0,0 STARLINK-3260,1 50205U 21125BB  22091.91667824 -.00128825  00000-0 -92392-3 0  9996,2 50205  53.2155 205.2777 0004788 331.2078 277.8089 15.73271584 19314,6727.691,91.529,352.777,346.335,0.0
50205.0,STARLINK-3260,PAYLOAD,2022-04-02 14:00:01,15.73182374,0.0004888999999999,53.216,201.9791,326.858,100.0444,-0.00043313,-0.00060975,0.0,0 STARLINK-3260,1 50205U 21125BB  22092.58335648 -.00060975  00000-0 -43313-3 0  9996,2 50205  53.2160 201.9791 0004889 326.8580 100.0444 15.73182374 19421,6727.945,91.534,353.1,346.521,0.0
50205.0,STARLINK-3260,PAYLOAD,2022-04-02 22:00:01,15.73293893,0.0004731,53.2162,200.3282,328.1159,187.6704,-0.0025464,-0.00345466,0.0,0 STARLINK-3260,1 50205U 21125BB  22092.91668981 -.00345466  00000-0 -25464-2 0  9999,2 50205  53.2162 200.3282 0004731 328.1159 187.6704 15.73293893 19478,6727.627,91.528,352.675,346.31,0.0
50205.0,STARLINK-3260,PAYLOAD,2022-04-03 06:00:00,15.72709615,0.0004768,53.2169,198.6758,329.5312,275.1589,0.0048626999999999,0.00729013,0.0,0 STARLINK-3260,1 50205U 21125BB  22093.25001157  .00729013  00000-0  48627-2 0  9991,2 50205  53.2169 198.6758 0004768 329.5312 275.1589 15.72709615 19521,6729.294,91.562,354.367,347.95,0.0
50205.0,STARLINK-3260,PAYLOAD,2022-04-03 22:00:00,15.73212041,0.0005154,53.2152,195.3811,323.393,99.0696,-0.00031352,-0.00044455,0.0,0 STARLINK-3260,1 50205U 21125BB  22093.91667824 -.00044455  00000-0 -31352-3 0  9993,2 50205  53.2152 195.3811 0005154 323.3930  99.0696 15.73212041 19632,6727.861,91.532,353.1930000000001,346.2580000000001,0.0
50205.0,STARLINK-3260,PAYLOAD,2022-04-04 14:00:01,15.73173682,0.0005303,53.2154,192.0828,322.9329,277.3874,0.00034379,0.0004788,0.0,0 STARLINK-3260,1 50205U 21125BB  22094.58334491  .00047880  00000-0  34379-3 0  9993,2 50205  53.2154 192.0828 0005303 322.9329 277.3874 15.73173682 19736,6727.97,91.535,353.403,346.267,0.0
50205.0,STARLINK-3260,PAYLOAD,2022-04-04 22:00:00,15.73213542,0.0005317,53.2151,190.4324,321.9816,7.2639999999999985,-0.00012824,-0.00018611,0.0,0 STARLINK-3260,1 50205U 21125BB  22094.91667824 -.00018611  00000-0 -12824-3 0  9992,2 50205  53.2151 190.4324 0005317 321.9816   7.2640 15.73213542  3678,6727.857,91.532,353.2990000000001,346.144,0.0
50205.0,STARLINK-3260,PAYLOAD,2022-04-05 06:00:00,15.73231591,0.0005199,53.2151,188.7819,320.724,97.449,7.1395e-05,9.425e-05,0.0,0 STARLINK-3260,1 50205U 21125BB  22095.25001157  .00009425  00000-0  71395-4 0  9991,2 50205  53.2151 188.7819 0005199 320.7240  97.4490 15.73231591 19847,6727.805,91.531,353.168,346.172,0.0
50205.0,STARLINK-3260,PAYLOAD,2022-04-05 14:00:01,15.73231174,0.0005434999999999,53.2145,187.1343,320.4751,186.7425,-0.00066618,-0.00093309,0.0,0 STARLINK-3260,1 50205U 21125BB  22095.58335648 -.00093309  00000-0 -66618-3 0  9999,2 50205  53.2145 187.1343 0005435 320.4751 186.7425 15.73231174  3662,6727.806,91.531,353.32800000000015,346.015,0.0
50205.0,STARLINK-3260,PAYLOAD,2022-04-05 16:00:00,15.73201625,0.0005489,53.2145,186.7224,319.7835,299.6115,-0.00043369,-0.00061116,0.0,0 STARLINK-3260,1 50205U 21125BB  22095.66667824 -.00061116  00000-0 -43369-3 0  9991,2 50205  53.2145 186.7224 0005489 319.7835 299.6115 15.73201625 19900,6727.891,91.533,353.4480000000001,346.06300000000016,0.0
50205.0,STARLINK-3260,PAYLOAD,2022-04-05 22:00:00,15.73154397,0.0005507,53.2142,185.4838,317.6157,278.4665,3.893e-05,4.834e-05,0.0,0 STARLINK-3260,1 50205U 21125BB  22095.91667824  .00004834  00000-0  38930-4 0  9990,2 50205  53.2142 185.4838 0005507 317.6157 278.4665 15.73154397  3720,6728.025,91.536,353.595,346.185,0.0
50205.0,STARLINK-3260,PAYLOAD,2022-04-06 14:00:01,15.73133624,0.0005654,53.2147,182.1861,318.8081,95.0211,0.00049682,0.00069538,0.0,0 STARLINK-3260,1 50205U 21125BB  22096.58334491  .00069538  00000-0  49682-3 0  9992,2 50205  53.2147 182.1861 0005654 318.8081  95.0211 15.73133624 20052,6728.084,91.537,353.75300000000016,346.145,0.0
50205.0,STARLINK-3260,PAYLOAD,2022-04-06 22:00:00,15.7321035,0.0005685999999999,53.2144,180.5354,318.938,183.7781,0.00019261,0.00026526,0.0,0 STARLINK-3260,1 50205U 21125BB  22096.91667824  .00026526  00000-0  19261-3 0  9998,2 50205  53.2144 180.5354 0005686 318.9380 183.7781 15.73210350  3719,6727.866,91.533,353.556,345.905,0.0
50205.0,STARLINK-3260,PAYLOAD,2022-04-07 14:00:01,15.7323068,0.0005801,53.214,177.2377,319.2606,1.3598,-0.00028043,-0.00039892,0.0,0 STARLINK-3260,1 50205U 21125BB  22097.58334491 -.00039892  00000-0 -28043-3 0  9993,2 50205  53.2140 177.2377 0005801 319.2606   1.3598 15.73230680  3716,6727.808000000001,91.531,353.576,345.77,0.0
50205.0,STARLINK-3260,PAYLOAD,2022-04-07 20:00:01,15.73250608,0.0005813,53.2135,175.9996,317.7963,339.5636,-0.00067797,-0.00095024,0.0,0 STARLINK-3260,1 50205U 21125BB  22097.83334491 -.00095024  00000-0 -67797-3 0  9999,2 50205  53.2135 175.9996 0005813 317.7963 339.5636 15.73250608 20242,6727.751,91.53,353.527,345.705,0.0
50205.0,STARLINK-3260,PAYLOAD,2022-04-07 22:00:00,15.73214248,0.0005791,53.2137,175.5866,316.3709,93.2371,-0.00024515,-0.00034948,0.0,0 STARLINK-3260,1 50205U 21125BB  22097.91667824 -.00034948  00000-0 -24515-3 0  9996,2 50205  53.2137 175.5866 0005791 316.3709  93.2371 15.73214248  3683,6727.855,91.532,353.616,345.8230000000001,0.0
50205.0,STARLINK-3260,PAYLOAD,2022-04-08 06:00:00,15.73200097,0.0005671,53.2141,173.9364,316.5787,181.9487,0.00051954,0.00072985,0.0,0 STARLINK-3260,1 50205U 21125BB  22098.25001157  .00072985  00000-0  51954-3 0  9993,2 50205  53.2141 173.9364 0005671 316.5787 181.9487 15.73200097 20317,6727.895,91.533,353.575,345.945,0.0
50205.0,STARLINK-3260,PAYLOAD,2022-04-08 14:00:03,15.73274565,0.0005921,53.2142,172.2888,318.2503,269.3766,-0.0002796,-0.00039852,0.0,0 STARLINK-3260,1 50205U 21125BB  22098.58336806 -.00039852  00000-0 -27960-3 0  9999,2 50205  53.2142 172.2888 0005921 318.2503 269.3766 15.73274565  3700,6727.683000000001,91.529,353.531,345.564,0.0
50205.0,STARLINK-3260,PAYLOAD,2022-04-08 22:00:00,15.7323675,0.0005884999999999,53.214,170.6376,314.779,1.709,-0.00059567,-0.00083628,0.0,0 STARLINK-3260,1 50205U 21125BB  22098.91667824 -.00083628  00000-0 -59567-3 0  9991,2 50205  53.2140 170.6376 0005885 314.7790   1.7090 15.73236750 20419,6727.79,91.531,353.615,345.696,0.0
